{
  "fulfils_needs" : {
    "label" : { 
      "en" : "Needs fulfilled by a community",
      "de" : "Erfüllte Bedürfnisse"
    },
    "description" : {
      "en" : "We all have needs. We need food and shelter, we need mobility and we need to communicate with others. Here is a list of various needs. You will find both: things that directly satisfy your needs as well as people who care for providing these things and for running needs-oriented projects",
      "de" : "Wir alle haben Bedürfnisse. Wir müssen essen und trinken, wir suchen Schutz, brauchen Wissen und Mobilität. Hier findet sich eine Liste dieser Bedürfnisse."
    },
    "items" : [ 
      {
        "transformap:key" : "food",
        "osm:key" : "fulfils_needs:food",
        "osm:values" : [ "yes" ],
        "label" : {
          "en" : "provides: food",
          "de" : "Bietet: Essen"
        },
        "description" : {
          "en" : "",
          "de" : ""
        },
        "osm:objects" : [ 
          { "amenity" : "pub" , "food" : "yes" } ,
          { "amenity" : "bar" , "food" : "yes" } ,
          { "amenity" : "cafe" , "food" : "yes" } ,
          { "amenity" : "restaurant" } ,
          { "amenity" : "fast_food" } ,
          { "amenity" : "marketplace" } ,
          { "shop" : "butcher" },
          { "shop" : "supermarket" },
          { "leisure" : "garden", "description" : "Gemeinschaftsgarten" }
        ]
      },
      {
        "transformap:key" : "water", 
        "osm:key" : "fulfils_needs:water",
        "osm:values" : [ "yes" ],
        "label" : {
          "en" : "provides: water",
          "de" : "Bietet: Wasser"
        },
        "description" : {
          "en" : "",
          "de" : ""
        },
        "osm:objects" : [ 
          { "amenity" : "drinking_water" } ,
          { "shop" : "butcher" },
          { "leisure" : "garden", "description" : "Gemeinschaftsgarten" }
        ]
      },
      {
        "transformap:key" : "participation", 
        "osm:key" : "fulfils_needs:participation",
        "osm:values" : [ "yes" ],
        "label" : {
          "en" : "provides: contribute & participate ",
          "de" : "Bietet: beitragen & mitmachen"
        },
        "description" : {
          "en" : "Here is a place, where your contribution is needed. You can share your skills, contribute to a project, initiate activities, or deliberate on public issues.",
          "de" : "Beitragen erwünscht! Hier kannst Du Dich und Deine Fähigkeiten einbringen, zu einem Projekt beitragen, ein solches initiieren, oder Dich an Debatten beteiligen,  die uns alle angehen."
        },
        "osm:objects" : [ 
          { "amenity" : "hackerspace" },
          { "leisure" : "hackerspace" },
          { "club" : "*" } 
        ]
      }

    ]
  }
}
